COMMENT,ORIGINATOR,NORAD_CAT_ID,OBJECT_NAME,OBJECT_TYPE,CLASSIFICATION_TYPE,INTLDES,EPOCH,EPOCH_MICROSECONDS,MEAN_MOTION,ECCENTRICITY,INCLINATION,RA_OF_ASC_NODE,ARG_OF_PERICENTER,MEAN_ANOMALY,EPHEMERIS_TYPE,ELEMENT_SET_NO,REV_AT_EPOCH,BSTAR,MEAN_MOTION_DOT,MEAN_MOTION_DDOT,FILE,TLE_LINE0,TLE_LINE1,TLE_LINE2,OBJECT_ID,OBJECT_NUMBER,SEMIMAJOR_AXIS,PERIOD,APOGEE,PERIGEE
"GENERATED VIA SPACETRACK.ORG API","JSPOC","18161","SL-8 R/B","ROCKET BODY","U","87057B","2016-01-14 09:30:00","12672","13.76914604","0.003033","82.9351","98.7449","330.3226","76.0171","0","999","41269","5.4736e-05","6.9e-07","0","1980200","0 SL-8 R/B","1 18161U 87057B   16014.39583348  .00000069  00000-0  54736-4 0  9993","2 18161  82.9351  98.7449 0030330 330.3226  76.0171 13.76914604412691","1987-057B","18161","7352.987","104.581","997.154","952.551"
"GENERATED VIA SPACETRACK.ORG API","JSPOC","40039","PERSEUS M1","PAYLOAD","U","14033AF","2016-01-14 09:31:28","141536","14.85530388","0.0013755","97.9438","278.8203","196.7675","163.3038","0","999","8510","7.582e-05","6.01e-06","0","1980212","0 PERSEUS M1","1 40039U 14033AF  16014.39685349  .00000601  00000-0  75820-4 0  9999","2 40039  97.9438 278.8203 0013755 196.7675 163.3038 14.85530388 85103","2014-033AF","40039","6990.058","96.935","621.538","602.308"
"GENERATED VIA SPACETRACK.ORG API","JSPOC","14699","COSMOS 1536","PAYLOAD","U","84013A","2016-01-14 09:33:47","141856","15.04453118","0.0013793","82.5267","112.5766","34.0945","326.1164","0","999","73492","8.659e-05","1.241e-05","0","1980239","0 COSMOS 1536","1 14699U 84013A   16014.39846229  .00001241  00000-0  86590-4 0  9990","2 14699  82.5267 112.5766 0013793  34.0945 326.1164 15.04453118734927","1984-013A","14699","6931.321","95.715","562.747","543.626"
"GENERATED VIA SPACETRACK.ORG API","JSPOC","21796","COSMOS 2173","PAYLOAD","U","91081A","2016-01-14 09:33:58","100832","13.7544177","0.0049641","82.9572","108.2816","173.241","232.5049","0","999","21134","5.2308e-05","6.6e-07","0","1980146","0 COSMOS 2173","1 21796U 91081A   16014.39858913  .00000066  00000-0  52308-4 0  9996","2 21796  82.9572 108.2816 0049641 173.2410 232.5049 13.75441770211343","1991-081A","21796","7358.235","104.693","1016.627","943.573"
"GENERATED VIA SPACETRACK.ORG API","JSPOC","26621","MUNIN","PAYLOAD","U","00075C","2016-01-14 09:34:07","178016","13.0407471","0.0712306","95.4059","321.9528","335.1745","21.6604","0","999","72074","-1.5472e-05","-3.4e-07","0","1980173","0 MUNIN","1 26621U 00075C   16014.39869419 -.00000034  00000-0 -15472-4 0  9992","2 26621  95.4059 321.9528 0712306 335.1745  21.6604 13.04074710720744","2000-075C","26621","7624.303","110.423","1789.252","703.085"
"GENERATED VIA SPACETRACK.ORG API","JSPOC","15331","COSMOS 1602","PAYLOAD","U","84105A","2016-01-14 09:34:14","339712","15.117133","0.001403","82.5405","110.895","283.1138","76.8527","0","999","70330","0.00015458","2.667e-05","0","1980239","0 COSMOS 1602","1 15331U 84105A   16014.39877708  .00002667  00000-0  15458-3 0  9999","2 15331  82.5405 110.8950 0014030 283.1138  76.8527 15.11713300703307","1984-105A","15331","6909.111","95.256","540.670","521.283"
"GENERATED VIA SPACETRACK.ORG API","JSPOC","40896","BLOCK DM-SL R/B","ROCKET BODY","U","15048B","2016-01-14 09:34:27","886368","0.98653477","0.0097821","0.2706","84.3351","51.4388","225.0044","0","999","121","0","-7.4e-07","0","1980239","0 BLOCK DM-SL R/B","1 40896U 15048B   16014.39893387 -.00000074  00000-0  00000+0 0  9998","2 40896   0.2706  84.3351 0097821  51.4388 225.0044  0.98653477  1214","2015-048B","40896","42624.592","1459.654","36663.415","35829.499"
"GENERATED VIA SPACETRACK.ORG API","JSPOC","31116","CZ-3A R/B","ROCKET BODY","U","07011B","2016-01-14 09:35:13","145280","3.96122728","0.6118243","54.8049","96.7713","269.7875","24.7005","0","999","12364","0.00061643","0.00046068","4.597","1980353","0 CZ-3A R/B","1 31116U 07011B   16014.39945770  .00046068  45970-7  61643-3 0  9996","2 31116  54.8049  96.7713 6118243 269.7875  24.7005  3.96122728123640","2007-011B","31116","16872.599","363.523","20817.531","171.398"
"GENERATED VIA SPACETRACK.ORG API","JSPOC","37817","BLOCK DM-SL R/B","ROCKET BODY","U","11051B","2016-01-14 09:37:09","950304","2.20339346","0.6816828","0.6658","32.9675","42.8411","12.8454","0","999","3465","0","-1.07e-06","0","1980707","0 BLOCK DM-SL R/B","1 37817U 11051B   16014.40080961 -.00000107 +00000-0 +00000-0 0  9993","2 37817 000.6658 032.9675 6816828 042.8411 012.8454 02.20339346034658","2011-051B","37817","24946.357","653.537","35573.724","1562.719"
"GENERATED VIA SPACETRACK.ORG API","JSPOC","27057","COSMOS 2386","PAYLOAD","U","01058C","2016-01-14 09:37:14","830176","12.61533619","0.0001868","82.5448","131.0618","74.7772","285.3527","0","999","64684","-0.00012071","-1.1e-07","0","1980140","0 COSMOS 2386","1 27057U 01058C   16014.40086609 -.00000011  00000-0 -12071-3 0  9998","2 27057  82.5448 131.0618 0001868  74.7772 285.3527 12.61533619646848","2001-058C","27057","7794.757","114.146","1418.078","1415.166"
"GENERATED VIA SPACETRACK.ORG API","JSPOC","19765","GORIZONT 17","PAYLOAD","U","89004A","2016-01-14 09:37:17","791104","0.99066032","0.0017477","15.193","6.1407","74.8369","25.2833","0","999","9785","0","-1.5e-07","0","1980150","0 GORIZONT 17","1 19765U 89004A   16014.40090036 -.00000015  00000-0  00000+0 0  9999","2 19765  15.1930   6.1407 0017477  74.8369  25.2833  0.99066032 97857","1989-004A","19765","42506.172","1453.575","36202.325","36053.749"
"GENERATED VIA SPACETRACK.ORG API","JSPOC","22066","SL-12 R/B(AUX MOTOR)","ROCKET BODY","U","92047G","2016-01-14 09:37:44","169888","4.34721162","0.5671008","64.7376","104.1605","327.2826","7.7924","0","999","36618","0.00014189","9.6e-07","0","1980303","0 SL-12 R/B(AUX MOTOR)","1 22066U 92047G   16014.40120567  .00000096  00000-0  14189-3 0  9996","2 22066  64.7376 104.1605 5671008 327.2826   7.7924  4.34721162366188","1992-047G","22066","15858.471","331.246","18473.688","486.984"
"GENERATED VIA SPACETRACK.ORG API","JSPOC","40740","FLOCK 1E 13","PAYLOAD","U","98067GS","2016-01-14 09:38:29","501376","15.68853326","0.000333","51.6403","100.9101","273.9568","135.6358","0","999","2843","0.00040843","0.00047535","0","1980176","0 FLOCK 1E 13","1 40740U 98067GS  16014.40173034  .00047535  00000-0  40843-3 0  9995","2 40740  51.6403 100.9101 0003330 273.9568 135.6358 15.68853326 28432","1998-067GS","40740","6740.316","91.786","364.425","359.936"
"GENERATED VIA SPACETRACK.ORG API","JSPOC","21012","SL-12 R/B(AUX MOTOR)","ROCKET BODY","U","90110G","2016-01-14 09:39:12","907872","4.27980095","0.5769759","65.2733","90.3865","218.812","80.9288","0","999","38974","0.0007034","7.74e-06","0","1980144","0 SL-12 R/B(AUX MOTOR)","1 21012U 90110G   16014.40223273  .00000774  00000-0  70340-3 0  9997","2 21012  65.2733  90.3865 5769759 218.8120  80.9288  4.27980095389745","1990-110G","21012","16024.560","336.464","18892.210","400.640"
"GENERATED VIA SPACETRACK.ORG API","JSPOC","25791","FUSE 1","PAYLOAD","U","99035A","2016-01-14 09:40:03","686880","14.42647326","0.0010139","24.9859","353.5936","327.6454","166.2436","0","999","87352","4.0145e-05","3.16e-06","0","1980190","0 FUSE 1","1 25791U 99035A   16014.40282045  .00000316  00000-0  40145-4 0  9995","2 25791  24.9859 353.5936 0010139 327.6454 166.2436 14.42647326873524","1999-035A","25791","7127.902","99.816","756.994","742.540"
"GENERATED VIA SPACETRACK.ORG API","JSPOC","25319","IRIDIUM 69","PAYLOAD","U","98026A","2016-01-14 09:40:10","680960","14.38538192","0.000298","86.4009","104.4066","137.3166","268.9491","0","999","92831","7.9231e-05","2.62e-06","0","1980253","0 IRIDIUM 69","1 25319U 98026A   16014.40290140  .00000262  00000-0  79231-4 0  9993","2 25319  86.4009 104.4066 0002980 137.3166 268.9491 14.38538192928312","1998-026A","25319","7141.469","100.101","765.462","761.206"
"GENERATED VIA SPACETRACK.ORG API","JSPOC","23943","APSTAR 1A","PAYLOAD","U","96039A","2016-01-14 09:40:33","512160","0.9919482","0.0023906","8.3537","44.2167","249.017","138.1733","0","999","7146","0","-2.03e-06","0","1980188","0 APSTAR 1A","1 23943U 96039A   16014.40316565 -.00000203  00000-0  00000+0 0  9995","2 23943   8.3537  44.2167 0023906 249.0170 138.1733  0.99194820 71462","1996-039A","23943","42469.372","1451.688","36192.764","35989.710"
"GENERATED VIA SPACETRACK.ORG API","JSPOC","40105","NAVSTAR 71 (USA 256)","PAYLOAD","U","14045A","2016-01-14 09:40:47","58816","2.00565247","0.0003752","54.766","240.7994","120.1988","239.9104","0","999","1061","0","4.6e-07","0","1980257","0 NAVSTAR 71 (USA 256)","1 40105U 14045A   16014.40332244  .00000046  00000-0  00000+0 0  9997","2 40105  54.7660 240.7994 0003752 120.1988 239.9104  2.00565247 10618","2014-045A","40105","26560.202","717.970","20192.033","20172.102"
"GENERATED VIA SPACETRACK.ORG API","JSPOC","24883","ORBVIEW 2 (SEASTAR)","PAYLOAD","U","97037A","2016-01-14 09:41:26","224800","14.33274629","0.0002278","98.5123","124.8827","178.5384","181.5807","0","999","97744","6.665e-05","1.4e-06","0","1980248","0 ORBVIEW 2 (SEASTAR)","1 24883U 97037A   16014.40377575  .00000140  00000-0  66650-4 0  9993","2 24883  98.5123 124.8827 0002278 178.5384 181.5807 14.33274629977444","1997-037A","24883","7158.942","100.469","782.438","779.177"
"GENERATED VIA SPACETRACK.ORG API","JSPOC","40303","SL-24 R/B","ROCKET BODY","U","14070F","2016-01-14 09:41:33","188640","13.12735941","0.0958939","97.1629","327.5692","163.2536","200.2731","0","999","5693","5.3033e-05","2.01e-06","0","1980227","0 SL-24 R/B","1 40303U 14070F   16014.40385635  .00000201  00000-0  53033-4 0  9999","2 40303  97.1629 327.5692 0958939 163.2536 200.2731 13.12735941 56933","2014-070F","40303","7590.730","109.694","1940.500","484.691"
